NORAD_CAT_ID,OBJECT_NAME,OBJECT_TYPE,EPOCH,MEAN_MOTION,ECCENTRICITY,INCLINATION,RA_OF_ASC_NODE,ARG_OF_PERICENTER,MEAN_ANOMALY,BSTAR,MEAN_MOTION_DOT,MEAN_MOTION_DDOT,TLE_LINE0,TLE_LINE1,TLE_LINE2,SEMIMAJOR_AXIS,PERIOD,APOGEE,PERIGEE,DECAYED
53823.0,STARLINK-4748,PAYLOAD,2023-01-22 04:40:41,15.7320108,0.0001376999999999,53.2162,357.9186,96.455,263.6627,0.00030437,0.00042314,0.0,0 STARLINK-4748,1 53823U 22114F   23022.19492674  .00042314  00000-0  30437-3 0  9996,2 53823  53.2162 357.9186 0001377  96.4550 263.6627 15.73201080 20290,6727.892,91.533,350.684,348.831,0.0
53823.0,STARLINK-4748,PAYLOAD,2023-01-22 15:21:03,15.7322839,0.000149,53.2164,355.7176,87.4497,272.6694,0.00021407,0.00029565,0.0,0 STARLINK-4748,1 53823U 22114F   23022.63962006  .00029565  00000-0  21407-3 0  9996,2 53823  53.2164 355.7176 0001490  87.4497 272.6694 15.73228390 20368,6727.814,91.532,350.682,348.677,0.0
53823.0,STARLINK-4748,PAYLOAD,2023-01-22 22:58:27,15.73214246,7.77e-05,53.2162,354.1457,106.296,253.8145,9.2625e-05,0.00012407,0.0,0 STARLINK-4748,1 53823U 22114F   23022.95725695  .00012407  00000-0  92625-4 0  9990,2 53823  53.2162 354.1457 0000777 106.2960 253.8145 15.73214246 20416,6727.855,91.532,350.242,349.19699999999995,0.0
53823.0,STARLINK-4748,PAYLOAD,2023-01-24 05:28:23,15.72478735,0.0001027,53.2153,347.8603,105.1722,254.9411,-0.0017914,-0.00237616,0.0,0 STARLINK-4748,1 53823U 22114F   23024.22804903 -.00237616  00000-0 -17914-2 0  9991,2 53823  53.2153 347.8603 0001027 105.1722 254.9411 15.72478735 20615,6729.951999999999,91.575,352.50800000000004,351.126,0.0
53823.0,STARLINK-4748,PAYLOAD,2023-01-24 11:34:35,15.72166846,0.0002399,53.216,346.6,31.3915,328.7248,-0.0012184,-0.00161162,0.0,0 STARLINK-4748,1 53823U 22114F   23024.48235034 -.00161162  00000-0 -12184-2 0  9998,2 53823  53.2160 346.6000 0002399  31.3915 328.7248 15.72166846 20657,6730.842,91.593,354.32199999999995,351.093,0.0
53823.0,STARLINK-4748,PAYLOAD,2023-01-24 22:00:00,15.7107733,0.0001195,53.2154,344.4596,98.8541,199.8055,-0.0065796,-0.00770592,0.0,0 STARLINK-4748,1 53823U 22114F   23024.91667824 -.00770592  00000-0 -65796-2 0  9992,2 53823  53.2154 344.4596 0001195  98.8541 199.8055 15.71077330 20721,6733.954000000001,91.657,356.624,355.014,0.0
53823.0,STARLINK-4748,PAYLOAD,2023-01-25 14:00:01,15.69981599,0.0001068,53.2149,341.1742,85.9172,24.1658,-0.0068786,-0.00769352,0.0,0 STARLINK-4748,1 53823U 22114F   23025.58334491 -.00769352  00000-0 -68786-2 0  9991,2 53823  53.2149 341.1742 0001068  85.9172  24.1658 15.69981599  1308,6737.087,91.721,359.671,358.232,0.0
53823.0,STARLINK-4748,PAYLOAD,2023-01-25 22:00:00,15.69454392,0.0001109,53.2151,339.5328,99.9455,94.855,-0.0071192999999999,-0.00778085,0.0,0 STARLINK-4748,1 53823U 22114F   23025.91667824 -.00778085  00000-0 -71193-2 0  9996,2 53823  53.2151 339.5328 0001109  99.9455  94.8550 15.69454392  1308,6738.595,91.752,361.208,359.713,0.0
53823.0,STARLINK-4748,PAYLOAD,2023-01-26 06:00:00,15.68868683,9.53e-05,53.2151,337.8951,83.1243,195.7688,-0.0066432,-0.00714106,0.0,0 STARLINK-4748,1 53823U 22114F   23026.25001157 -.00714106  00000-0 -66432-2 0  9999,2 53823  53.2151 337.8951 0000953  83.1243 195.7688 15.68868683 20931,6740.272,91.786,362.78,361.495,0.0
53823.0,STARLINK-4748,PAYLOAD,2023-01-26 14:00:01,15.68345752,8.759999999999999e-05,53.2149,336.255,94.5126,267.8023,-0.0071906999999999,-0.00752811,0.0,0 STARLINK-4748,1 53823U 22114F   23026.58334491 -.00752811  00000-0 -71907-2 0  9993,2 53823  53.2149 336.2550 0000876  94.5126 267.8023 15.68345752  1307,6741.771,91.816,364.226,363.045,0.0
53823.0,STARLINK-4748,PAYLOAD,2023-01-27 02:00:01,15.67534623,9.86e-05,53.2142,333.8009,91.8427,214.3873,-0.0075385,-0.00762429,0.0,0 STARLINK-4748,1 53823U 22114F   23027.08334491 -.00762429  00000-0 -75385-2 0  9999,2 53823  53.2142 333.8009 0000986  91.8427 214.3873 15.67534623 21069,6744.096,91.864,366.626,365.296,0.0
53823.0,STARLINK-4748,PAYLOAD,2023-01-27 14:00:01,15.66717299,0.0001077,53.2139,331.3476,99.216,149.464,-0.0077115,-0.00755012,0.0,0 STARLINK-4748,1 53823U 22114F   23027.58334491 -.00755012  00000-0 -77115-2 0  9997,2 53823  53.2139 331.3476 0001077  99.2160 149.4640 15.66717299  1300,6746.441,91.912,369.033,367.58,0.0
53823.0,STARLINK-4748,PAYLOAD,2023-01-27 22:00:00,15.66211937,9.85e-05,53.2141,329.7144,97.4343,232.0453,-0.0084104,-0.00801987,0.0,0 STARLINK-4748,1 53823U 22114F   23027.91667824 -.00801987  00000-0 -84104-2 0  9992,2 53823  53.2141 329.7144 0000985  97.4343 232.0453 15.66211937  1305,6747.892,91.942,370.422,369.093,0.0
53823.0,STARLINK-4748,PAYLOAD,2023-01-28 08:00:01,15.65514226,0.0001132,53.2139,327.6764,79.0902,80.4984,-0.0082231,-0.00765783,0.0,0 STARLINK-4748,1 53823U 22114F   23028.33334491 -.00765783  00000-0 -82231-2 0  9992,2 53823  53.2139 327.6764 0001132  79.0902  80.4984 15.65514226 21266,6749.897,91.983,372.526,370.9980000000001,0.0
53823.0,STARLINK-4748,PAYLOAD,2023-01-28 14:00:01,15.65074422,0.0001069,53.2142,326.4518,91.5894,37.5907,-0.0079136,-0.00727468,0.0,0 STARLINK-4748,1 53823U 22114F   23028.58334491 -.00727468  00000-0 -79136-2 0  9997,2 53823  53.2142 326.4518 0001069  91.5894  37.5907 15.65074422  1302,6751.162,92.008,373.748,372.305,0.0
53823.0,STARLINK-4748,PAYLOAD,2023-01-28 22:00:00,15.64582209,0.0001318,53.2143,324.8227,94.9218,113.0995,-0.0089638,-0.00800652,0.0,0 STARLINK-4748,1 53823U 22114F   23028.91667824 -.00800652  00000-0 -89638-2 0  9998,2 53823  53.2143 324.8227 0001318  94.9218 113.0995 15.64582209  1309,6752.578,92.037,375.333,373.553,0.0
53823.0,STARLINK-4748,PAYLOAD,2023-01-29 16:00:00,15.63304683,0.0001226,53.2135,321.1611,91.0173,22.0786,-0.0082296,-0.00706844,0.0,0 STARLINK-4748,1 53823U 22114F   23029.66667824 -.00706844  00000-0 -82296-2 0  9992,2 53823  53.2135 321.1611 0001226  91.0173  22.0786 15.63304683 21477,6756.256,92.113,378.949,377.293,0.0
53823.0,STARLINK-4748,PAYLOAD,2023-01-29 22:00:01,15.62951474,0.0001203,53.2138,319.943,85.4639,355.2985,-0.0095262,-0.00797752,0.0,0 STARLINK-4748,1 53823U 22114F   23029.91668981 -.00797752  00000-0 -95262-2 0  9990,2 53823  53.2138 319.9430 0001203  85.4639 355.2985 15.62951474  1300,6757.274,92.133,379.952,378.326,0.0
53823.0,STARLINK-4748,PAYLOAD,2023-01-30 10:00:00,15.62138615,8.55e-05,53.2135,317.5082,81.669,293.1636,-0.0098884,-0.00801554,0.0,0 STARLINK-4748,1 53823U 22114F   23030.41667824 -.00801554  00000-0 -98884-2 0  9991,2 53823  53.2135 317.5082 0000855  81.6690 293.1636 15.62138615 21580,6759.618,92.181,382.061,380.905,0.0
53823.0,STARLINK-4748,PAYLOAD,2023-01-30 14:00:01,15.6182036,0.0001069,53.214,316.6959,86.3136,146.2548,-0.0089253,-0.00721772,0.0,0 STARLINK-4748,1 53823U 22114F   23030.58334491 -.00721772  00000-0 -89253-2 0  9993,2 53823  53.2140 316.6959 0001069  86.3136 146.2548 15.61820360  1306,6760.536,92.2,383.124,381.678,0.0
53823.0,STARLINK-4748,PAYLOAD,2023-01-31 00:00:00,15.61164882,0.000123,53.2142,314.6707,78.6799,337.4684,-0.0097832,-0.00766877,0.0,0 STARLINK-4748,1 53823U 22114F   23031.00001157 -.00766877  00000-0 -97832-2 0  9998,2 53823  53.2142 314.6707 0001230  78.6799 337.4684 15.61164882  1301,6762.428,92.239,385.125,383.461,0.0
53823.0,STARLINK-4748,PAYLOAD,2023-01-31 02:00:01,15.61015808,0.0001368,53.2141,314.266,77.7646,86.9808,-0.0094689,-0.00740441,0.0,0 STARLINK-4748,1 53823U 22114F   23031.08334491 -.00740441  00000-0 -94689-2 0  9992,2 53823  53.2141 314.2660 0001368  77.7646  86.9808 15.61015808 21698,6762.859,92.248,385.649,383.798,0.0
53823.0,STARLINK-4748,PAYLOAD,2023-01-31 14:00:01,15.60189878,0.0001245,53.2143,311.836,83.9881,11.4777,-0.0094612,-0.00718521,0.0,0 STARLINK-4748,1 53823U 22114F   23031.58334491 -.00718521  00000-0 -94612-2 0  9997,2 53823  53.2143 311.8360 0001245  83.9881  11.4777 15.60189878  1306,6765.245,92.296,387.952,386.268,0.0
53823.0,STARLINK-4748,PAYLOAD,2023-01-31 22:00:00,15.5968393,0.0001323,53.2142,310.2195,84.5603,83.8875,-0.010566,-0.00780808,0.0,0 STARLINK-4748,1 53823U 22114F   23031.91667824 -.00780808  00000-0 -10566-1 0  9995,2 53823  53.2142 310.2195 0001323  84.5603  83.8875 15.59683930 21827,6766.708,92.326,389.468,387.678,0.0
53823.0,STARLINK-4748,PAYLOAD,2023-02-01 14:00:01,15.58560428,0.0001151,53.2136,306.988,97.0515,215.4427,-0.010009,-0.00714478,0.0,0 STARLINK-4748,1 53823U 22114F   23032.58334491 -.00714478  00000-0 -10009-1 0  9992,2 53823  53.2136 306.9880 0001151  97.0515 215.4427 15.58560428 21925,6769.96,92.393,392.604,391.045,0.0
53823.0,STARLINK-4748,PAYLOAD,2023-02-02 06:00:00,15.57503642,0.000115,53.2137,303.7646,77.5013,16.4048,-0.011011,-0.00751602,0.0,0 STARLINK-4748,1 53823U 22114F   23033.25001157 -.00751602  00000-0 -11011-1 0  9991,2 53823  53.2137 303.7646 0001150  77.5013  16.4048 15.57503642 22020,6773.022,92.456,395.665,394.108,0.0
53823.0,STARLINK-4748,PAYLOAD,2023-02-02 14:00:01,15.56932432,0.0001101,53.214,302.1519,94.9771,68.6773,-0.010589,-0.00711058,0.0,0 STARLINK-4748,1 53823U 22114F   23033.58334491 -.00711058  00000-0 -10589-1 0  9997,2 53823  53.2140 302.1519 0001101  94.9771  68.6773 15.56932432  1300,6774.678,92.49,397.289,395.797,0.0
53823.0,STARLINK-4748,PAYLOAD,2023-02-03 08:00:01,15.55768318,9.39e-05,53.2139,298.534,84.3599,323.7945,-0.012646,-0.00814885,0.0,0 STARLINK-4748,1 53823U 22114F   23034.33334491 -.00814885  00000-0 -12646-1 0  9999,2 53823  53.2139 298.5340 0000939  84.3599 323.7945 15.55768318 22192,6778.057,92.559,400.559,399.286,0.0
53823.0,STARLINK-4748,PAYLOAD,2023-02-03 14:00:01,15.55304018,9.18e-05,53.2139,297.3276,95.8882,273.0596,-0.011192,-0.00707515,0.0,0 STARLINK-4748,1 53823U 22114F   23034.58334491 -.00707515  00000-0 -11192-1 0  9992,2 53823  53.2139 297.3276 0000918  95.8882 273.0596 15.55304018  1308,6779.406,92.586,401.893,400.649,0.0
